GLOBALSTAR M075         
1 37192U 10054E   24299.92696720 -.00000084  00000+0  10899-3 0  9991
2 37192  51.9931 174.8089 0000777  79.9142 293.3828 12.62268107646794
GLOBALSTAR M073         
1 37193U 10054F   24299.79854109 -.00000098  00000+0  31937-4 0  9996
2 37193  52.0050  88.8362 0000877 111.1125  38.0039 12.62271559648287
GLOBALSTAR M083         
1 37739U 11033A   24298.70254539 -.00000081  00000+0  12437-3 0  9996
2 37739  51.9879  41.2257 0000810 101.5164  45.1821 12.62266626617114
GLOBALSTAR M088         
1 37740U 11033B   24299.78994080 -.00000067  00000+0  20792-3 0  9996
2 37740  51.9737 303.6049 0000507  75.4953  95.8272 12.62263847613087
GLOBALSTAR M091         
1 37741U 11033C   24298.89972163 -.00000068  00000+0  20066-3 0  9991
2 37741  51.9993 269.4529 0000816  65.4703 316.8053 12.62269054613471
GLOBALSTAR M085         
1 37742U 11033D   24299.84055576 -.00000080  00000+0  13359-3 0  9999
2 37742  51.9861 217.8323 0000998  69.4407 331.4930 12.62267943614597
GLOBALSTAR M081         
1 37743U 11033E   24299.86377712 -.00000093  00000+0  58480-4 0  9990
2 37743  51.9953 220.4037 0000913  86.7106 300.1108 12.62262210614634
GLOBALSTAR M089         
1 37744U 11033F   24299.83589169 -.00000089  00000+0  84659-4 0  9991
2 37744  51.9913 174.7637 0000611  95.5621 342.9134 12.62271311615347
